[{"OBJECT_NAME":"STARLINK-36118","OBJECT_ID":"2025-293G","EPOCH":"2026-03-09T18:52:55.578432","MEAN_MOTION":14.9831791,"ECCENTRICITY":0.00039551,"INCLINATION":70.0019,"RA_OF_ASC_NODE":94.1613,"ARG_OF_PERICENTER":270.0357,"MEAN_ANOMALY":90.0349,"EPHEMERIS_TYPE":0,"CLASSIFICATION_TYPE":"U","NORAD_CAT_ID":67009,"ELEMENT_SET_NO":999,"REV_AT_EPOCH":1490,"BSTAR":0.00042754978,"MEAN_MOTION_DOT":5.011e-5,"MEAN_MOTION_DDOT":0},{"OBJECT_NAME":"FENGYUN 1C DEB","OBJECT_ID":"1999-025FA","EPOCH":"2026-03-09T12:13:03.178848","MEAN_MOTION":14.51919442,"ECCENTRICITY":0.02484504,"INCLINATION":98.681,"RA_OF_ASC_NODE":170.2285,"ARG_OF_PERICENTER":35.3689,"MEAN_ANOMALY":24.2024,"EPHEMERIS_TYPE":0,"CLASSIFICATION_TYPE":"U","NORAD_CAT_ID":29856,"ELEMENT_SET_NO":999,"REV_AT_EPOCH":97632,"BSTAR":0.0021637674,"MEAN_MOTION_DOT":0.00013045,"MEAN_MOTION_DDOT":0}]
